[
  {
    "name": "KUIPER-00604",
    "noradId": "69769",
    "line1": "1 69769U 26151G   26192.83336806  .00039425  00000+0  10373-2 0  9997",
    "line2": "2 69769  51.8796 196.5751 0002716  97.9235  81.8561 15.38173949  2450"
  },
  {
    "name": "KUIPER-00609",
    "noradId": "69770",
    "line1": "1 69770U 26151H   26192.83336806  .00039822  00000+0  10342-2 0  9996",
    "line2": "2 69770  51.8798 196.5446 0001006  42.5846 151.7585 15.38571345  1308"
  },
  {
    "name": "KUIPER-00611",
    "noradId": "69771",
    "line1": "1 69771U 26151J   26192.83336806  .00038319  00000+0  10019-2 0  9998",
    "line2": "2 69771  51.8801 196.5556 0001614  94.8841  92.2084 15.38382873  1305"
  },
  {
    "name": "KUIPER-00612",
    "noradId": "69772",
    "line1": "1 69772U 26151K   26192.83336806  .00039320  00000+0  10445-2 0  9995",
    "line2": "2 69772  51.8790 196.5981 0003718 106.0389  63.5624 15.37875645  1309"
  },
  {
    "name": "KUIPER-00614",
    "noradId": "69773",
    "line1": "1 69773U 26151L   26192.83336806  .00039261  00000+0  10359-2 0  9994",
    "line2": "2 69773  51.8800 196.5795 0002732 113.2630  63.5669 15.38087750  2032"
  },
  {
    "name": "KUIPER-00615",
    "noradId": "69774",
    "line1": "1 69774U 26151M   26192.83336806  .00038820  00000+0  10550-2 0  9998",
    "line2": "2 69774  51.8773 196.6504 0006160 136.5427   8.4945 15.37168759  1304"
  },
  {
    "name": "KUIPER-00616",
    "noradId": "69775",
    "line1": "1 69775U 26151N   26192.83336806  .00039439  00000+0  10325-2 0  9996",
    "line2": "2 69775  51.8782 196.5752 0003144 112.3571  69.0621 15.38325998  1305"
  },
  {
    "name": "KUIPER-00617",
    "noradId": "69776",
    "line1": "1 69776U 26151P   26192.83336806  .00039464  00000+0  10538-2 0  9991",
    "line2": "2 69776  51.8795 196.6051 0004073 125.0081  40.5043 15.37712192  1309"
  },
  {
    "name": "KUIPER-00619",
    "noradId": "69777",
    "line1": "1 69777U 26151Q   26192.83336806  .00039635  00000+0  10327-2 0  9998",
    "line2": "2 69777  51.8800 196.5496 0001657  54.5523 136.4070 15.38472589  1524"
  },
  {
    "name": "KUIPER-00621",
    "noradId": "69778",
    "line1": "1 69778U 26151R   26192.83336806  .00038612  00000+0  10134-2 0  9999",
    "line2": "2 69778  51.8792 196.5704 0001993 103.7829  79.1328 15.38261937  2271"
  },
  {
    "name": "KUIPER-00622",
    "noradId": "69779",
    "line1": "1 69779U 26151S   26192.83336806  .00038734  00000+0  10607-2 0  9990",
    "line2": "2 69779  51.8733 196.6658 0006891 137.7811   0.5884 15.36928579  2136"
  },
  {
    "name": "KUIPER-00623",
    "noradId": "69780",
    "line1": "1 69780U 26151T   26192.83336806  .00038569  00000+0  10416-2 0  9996",
    "line2": "2 69780  51.8777 196.6290 0005051 124.4613  30.8414 15.37370176  2251"
  },
  {
    "name": "KUIPER-00626",
    "noradId": "69781",
    "line1": "1 69781U 26151U   26192.83336806  .00031995  00000+0  91638-3 0  9999",
    "line2": "2 69781  51.8715 196.7350 0010439 155.6028 308.4866 15.35591247  2497"
  },
  {
    "name": "KUIPER-00627",
    "noradId": "69782",
    "line1": "1 69782U 26151V   26192.83336806  .00037843  00000+0  10846-2 0  9999",
    "line2": "2 69782  51.8688 196.7526 0011351 157.3569 298.0038 15.35478943  1306"
  },
  {
    "name": "KUIPER-00629",
    "noradId": "69783",
    "line1": "1 69783U 26151W   26192.83336806  .00037963  00000+0  10406-2 0  9995",
    "line2": "2 69783  51.8744 196.6702 0007412 137.1982 358.8122 15.36904852  1823"
  },
  {
    "name": "KUIPER-00631",
    "noradId": "69784",
    "line1": "1 69784U 26151X   26192.83336806  .00037803  00000+0  10438-2 0  9994",
    "line2": "2 69784  51.8712 196.6866 0007956 144.6667 343.4465 15.36676041  1305"
  },
  {
    "name": "KUIPER-00634",
    "noradId": "69785",
    "line1": "1 69785U 26151Y   26192.83336806  .00037982  00000+0  10163-2 0  9998",
    "line2": "2 69785  51.8770 196.6137 0003731 125.4696  37.7522 15.37668566  1308"
  },
  {
    "name": "KUIPER-00639",
    "noradId": "69786",
    "line1": "1 69786U 26151Z   26192.83336806  .00033491  00000+0  94947-3 0  9993",
    "line2": "2 69786  51.8686 196.7187 0009557 153.7533 318.3566 15.35896748  1306"
  },
  {
    "name": "KUIPER-00641",
    "noradId": "69787",
    "line1": "1 69787U 26151AA  26192.83336806  .00033656  00000+0  97548-3 0  9997",
    "line2": "2 69787  51.8676 196.7531 0010965 151.5058 303.3506 15.35187257  2130"
  },
  {
    "name": "KUIPER-00644",
    "noradId": "69788",
    "line1": "1 69788U 26151AB  26192.83336806  .00037798  00000+0  10496-2 0  9995",
    "line2": "2 69788  51.8737 196.6994 0008654 147.2499 334.5321 15.36492948  2435"
  },
  {
    "name": "KUIPER-00646",
    "noradId": "69789",
    "line1": "1 69789U 26151AC  26192.83336806  .00049089  00000+0  13806-2 0  9990",
    "line2": "2 69789  51.8699 196.7159 0009999 152.3749 321.1250 15.35964822  1329"
  },
  {
    "name": "KUIPER-00647",
    "noradId": "69790",
    "line1": "1 69790U 26151AD  26192.83336806  .00039482  00000+0  11271-2 0  9992",
    "line2": "2 69790  51.8663 196.7450 0010792 153.2448 305.4603 15.35588669  2278"
  },
  {
    "name": "KUIPER-00662",
    "noradId": "69791",
    "line1": "1 69791U 26151AE  26192.83336806  .00037940  00000+0  10502-2 0  9996",
    "line2": "2 69791  51.8724 196.6928 0008607 142.2254 342.8268 15.36588676  1305"
  }
]