OBJECT_NAME,OBJECT_ID,EPOCH,MEAN_MOTION,ECCENTRICITY,INCLINATION,RA_OF_ASC_NODE,ARG_OF_PERICENTER,MEAN_ANOMALY,EPHEMERIS_TYPE,CLASSIFICATION_TYPE,NORAD_CAT_ID,ELEMENT_SET_NO,REV_AT_EPOCH,BSTAR,MEAN_MOTION_DOT,MEAN_MOTION_DDOT
KUIPER-00604,2026-151G,2026-07-11T20:00:03.000384,15.38173949,.0002716,51.8796,196.5751,97.9235,81.8561,0,U,69769,999,245,.10373E-2,.39425E-3,0
KUIPER-00609,2026-151H,2026-07-11T20:00:03.000384,15.38571345,.0001006,51.8798,196.5446,42.5846,151.7585,0,U,69770,999,130,.10342E-2,.39822E-3,0
KUIPER-00611,2026-151J,2026-07-11T20:00:03.000384,15.38382873,.0001614,51.8801,196.5556,94.8841,92.2084,0,U,69771,999,130,.10019E-2,.38319E-3,0
KUIPER-00612,2026-151K,2026-07-11T20:00:03.000384,15.37875645,.0003718,51.8790,196.5981,106.0389,63.5624,0,U,69772,999,130,.10445E-2,.3932E-3,0
KUIPER-00614,2026-151L,2026-07-11T20:00:03.000384,15.38087750,.0002732,51.8800,196.5795,113.2630,63.5669,0,U,69773,999,203,.10359E-2,.39261E-3,0
KUIPER-00615,2026-151M,2026-07-11T20:00:03.000384,15.37168759,.000616,51.8773,196.6504,136.5427,8.4945,0,U,69774,999,130,.1055E-2,.3882E-3,0
KUIPER-00616,2026-151N,2026-07-11T20:00:03.000384,15.38325998,.0003144,51.8782,196.5752,112.3571,69.0621,0,U,69775,999,130,.10325E-2,.39439E-3,0
KUIPER-00617,2026-151P,2026-07-11T20:00:03.000384,15.37712192,.0004073,51.8795,196.6051,125.0081,40.5043,0,U,69776,999,130,.10538E-2,.39464E-3,0
KUIPER-00619,2026-151Q,2026-07-11T20:00:03.000384,15.38472589,.0001657,51.8800,196.5496,54.5523,136.4070,0,U,69777,999,152,.10327E-2,.39635E-3,0
KUIPER-00621,2026-151R,2026-07-11T20:00:03.000384,15.38261937,.0001993,51.8792,196.5704,103.7829,79.1328,0,U,69778,999,227,.10134E-2,.38612E-3,0
KUIPER-00622,2026-151S,2026-07-11T20:00:03.000384,15.36928579,.0006891,51.8733,196.6658,137.7811,0.5884,0,U,69779,999,213,.10607E-2,.38734E-3,0
KUIPER-00623,2026-151T,2026-07-11T20:00:03.000384,15.37370176,.0005051,51.8777,196.6290,124.4613,30.8414,0,U,69780,999,225,.10416E-2,.38569E-3,0
KUIPER-00626,2026-151U,2026-07-11T20:00:03.000384,15.35591247,.0010439,51.8715,196.7350,155.6028,308.4866,0,U,69781,999,249,.91638E-3,.31995E-3,0
KUIPER-00627,2026-151V,2026-07-11T20:00:03.000384,15.35478943,.0011351,51.8688,196.7526,157.3569,298.0038,0,U,69782,999,130,.10846E-2,.37843E-3,0
KUIPER-00629,2026-151W,2026-07-11T20:00:03.000384,15.36904852,.0007412,51.8744,196.6702,137.1982,358.8122,0,U,69783,999,182,.10406E-2,.37963E-3,0
KUIPER-00631,2026-151X,2026-07-11T20:00:03.000384,15.36676041,.0007956,51.8712,196.6866,144.6667,343.4465,0,U,69784,999,130,.10438E-2,.37803E-3,0
KUIPER-00634,2026-151Y,2026-07-11T20:00:03.000384,15.37668566,.0003731,51.8770,196.6137,125.4696,37.7522,0,U,69785,999,130,.10163E-2,.37982E-3,0
KUIPER-00639,2026-151Z,2026-07-11T20:00:03.000384,15.35896748,.0009557,51.8686,196.7187,153.7533,318.3566,0,U,69786,999,130,.94947E-3,.33491E-3,0
KUIPER-00641,2026-151AA,2026-07-11T20:00:03.000384,15.35187257,.0010965,51.8676,196.7531,151.5058,303.3506,0,U,69787,999,213,.97548E-3,.33656E-3,0
KUIPER-00644,2026-151AB,2026-07-11T20:00:03.000384,15.36492948,.0008654,51.8737,196.6994,147.2499,334.5321,0,U,69788,999,243,.10496E-2,.37798E-3,0
KUIPER-00646,2026-151AC,2026-07-11T20:00:03.000384,15.35964822,.0009999,51.8699,196.7159,152.3749,321.1250,0,U,69789,999,132,.13806E-2,.49089E-3,0
KUIPER-00647,2026-151AD,2026-07-11T20:00:03.000384,15.35588669,.0010792,51.8663,196.7450,153.2448,305.4603,0,U,69790,999,227,.11271E-2,.39482E-3,0
KUIPER-00662,2026-151AE,2026-07-11T20:00:03.000384,15.36588676,.0008607,51.8724,196.6928,142.2254,342.8268,0,U,69791,999,130,.10502E-2,.3794E-3,0
